#dP2022 10  4 18  0  0.00000000      96 __u+U ITR00 EXT  IAC
## 2230 237600.00000000   900.00000000 59856 0.7500000000000
+  118   C06C07C08C09C10C11C12C13C14C16C19C20C21C22C23C24C25
+        C26C27C28C29C30C32C33C34C35C36C37C38C39C40C41C42C43
+        C44C45C46E01E02E03E04E05E07E08E09E10E11E12E13E14E15
+        E18E19E21E24E25E26E27E30E31E33E34E36G01G02G03G04G05
+        G06G07G08G09G10G11G12G13G14G15G16G17G18G19G20G21G22
+        G23G24G25G26G27G28G29G30G31G32J02J03J04R01R02R03R04
+        R05R07R08R09R11R12R13R14R15R17R18R19R20R21R24R25  0
++        10  9 10  7  8  8  9  8 10 10  6  8  7  9  9  8 10
++         9  8  9  8  8  9  9  8  8 10  8  8 10  9  9  6  9
++         8  8  8  7  6  8  8  8  8  7  7  8  8  9  7  7  8
++         8  7  8  9  8  7  7  7  8  8  8  7  7  8  8  8  8
++         7  8  8  7  7  8  7  8  7  9  7  7  8  8  7  9  8
++         8  7  7  6  7  8  7  8  9  7 10 10 10  8  9 10  9
++         8 10  9  7  7  8 10  8  8  7  9 10  8  8  8 12  0
%c M  cc GPS ccc cccc cccc cccc cccc ccccc ccccc ccccc ccccc
%c cc cc ccc ccc cccc cccc cccc cccc ccccc ccccc ccccc ccccc
%f  0.0000000  0.000000000  0.00000000000  0.000000000000000
%f  0.0000000  0.000000000  0.00000000000  0.000000000000000
%i    0    0    0    0      0      0      0      0         0
%i    0    0    0    0      0      0      0      0         0
/* IAC                                ULTRA-RAPID PREDICTION
/* S/V CLOCKS ARE ALIGNED TO GNSS TIME                      
/* G:C1WC2W R:C1PC2P E:C1XC5X C:C2IC6I J:C1CC2S             
/* PCV:IGS14_2218 OL/AL:FES2004  NONE     YN ORB:CoN CLK:CoN
*  2022 10 04 19 15  0.00000000
PC06  -1564.780755  31431.406318 -27945.666505    905.043285
PC07 -16014.523112  27673.580015  27468.322808   -231.355551
PC08 -14257.515979  39756.882934  -1668.348549    487.197258
PC09   6356.802990  35611.416231 -20868.805581   -844.288168
PC10  -7167.029875  28238.425599  30656.997025     88.208374
PC11  -9324.335982  12462.729881  23232.926229   -370.587637
PC12 -20572.844902  -4351.542799  18372.615132   -494.584196
PC13  -8304.082659  40436.755306  -9207.645358     98.157089
PC14 -19571.451417  14533.034888 -13527.454995    698.006272
PC16  -4870.954539  28513.601823 -30394.234658    132.393568
PC19  10346.328617 -16643.850255  19887.717109   -801.957510
PC20  24813.143998 -10927.375402   6664.659561    871.698335
PC21 -25330.412523  -1849.132011  11549.916676   -533.951628
PC22 -10738.787490 -13020.670824  22209.982984   -869.559517
PC23   4696.349201  22960.512896  15163.317329   -398.145688
PC24 -16992.765341  13801.299670 -17327.878884   -456.019428
PC25  -7513.594676  26882.751867   -569.576696      4.953959
PC26 -15608.117327  -4622.127485 -22675.977908    -16.831582
PC27  22341.073438  11987.549006 -11669.604009     30.908635
PC28  16073.591600  22249.211953   5071.608093     20.519652
PC29   -251.369600 -19616.496494 -19849.467163     22.377073
PC30  16393.116864  -5275.599265 -21960.711056      0.315077
PC32  25318.244849   1708.829252 -11611.719204   -773.740089
PC33 -10337.862875  16714.224623 -19812.253600   -828.763869
PC34 -15664.923206   6302.681777  22210.710551      9.414257
PC35 -15892.936709 -22042.189417  -6417.755339     26.830237
PC36   8531.733109 -26539.944187   1174.463942   -526.727234
PC37  15025.401050   6484.078204  22622.505753   -403.182707
PC38 -17822.312430  37817.213536   6213.735728     28.799796
PC39  -8194.594646  25178.680966 -32754.554505     -0.573812
PC40 -22818.542145  21221.015062  28304.371971     -5.407999
PC41  10229.535319  13235.042256 -22293.387159   -141.092507
PC42 -25323.797307  10316.406689  -5495.050427   -414.066358
PC43   -602.009502  19303.988141  20130.197289     17.799093
PC44 -22816.550853 -11334.432296  11407.195140     71.069145
PC45  -4866.673313 -22691.272173 -15473.169578     -5.783405
PC46  16568.325869 -15445.334505  16277.499302     -4.159273
PE01  -3495.589024  21788.827389  19739.724675   -540.571088
PE02   3309.034049 -21705.470028 -19837.848773    328.729214
PE03  -8562.711918 -18361.419406  21568.639624   -606.451367
PE04  25312.407134  13203.903610  -7816.532623  -1129.577962
PE05  13596.180345 -12837.411127  22942.822657   -137.699552
PE07 -27491.280576    -55.487242 -10964.901091   -710.623005
PE08 -25392.196189 -13053.665094   7787.221928   -609.846602
PE09  27535.516497    161.274671  10873.283920   -681.666230
PE10  17104.857513   9900.581836 -22049.117348   -481.385806
PE11  16008.030957  -2239.896445 -24807.693495   1937.820368
PE12  15455.402119  19543.669254 -15979.270911   -204.556881
PE13 -16122.623646   1290.735239  24791.256359    430.651982
PE14  27282.024553  -3193.577975 -17268.074030     18.352555
PE15 -15384.091123 -19719.735067  15829.633829    716.180882
PE18 -19600.889657   2286.845685  12715.829761   -899.805931
PE19   5646.244985  18151.681433 -22688.638563  -4354.335643
PE21 -18622.978350  22437.017834   5113.601170   -761.531522
PE24  24199.189119  -9296.748720  14261.505668   -873.092561
PE25  18819.314617 -22330.121535  -4802.290231   -589.346461
PE26  -7027.200098  22044.881276  18470.967055  -1689.114651
PE27 -24265.496482  10306.137610 -13459.743824   -407.576794
PE30 -14961.970345  -8594.939541 -24053.449334   -889.761464
PE31  15567.231339   7796.839327  23951.941421   -505.001549
PE33   5567.740848  28973.055745   2424.828546   -454.376384
PE34  -5725.819010 -28943.764635  -2254.557675     -7.809033
PE36   7405.633802 -21334.871296 -19132.284121   -441.077247
PG01 -13557.247927   6099.818939  21663.790116    272.894496
PG02  14720.053623  -1892.276582 -21402.315128   -643.658161
PG03 -22674.053124  10363.257428   8878.491272   -360.500926
PG04 -22147.594215   1528.184326 -14653.397741   -108.763333
PG05  19897.247499   -866.308784 -17806.332661    -99.139922
PG06   6748.747853  25199.181719  -4707.098984    481.487599
PG07  -7091.842587  20857.199119 -14053.816553    301.878283
PG08 -25611.493192  -5154.910162   5714.540823    -87.397719
PG09 -12840.347303  10834.403357 -20659.782877   -287.621088
PG10   5086.619725 -19290.940224  17525.772831     -6.085512
PG11  12041.827605  18566.988130 -14712.254801    -22.316314
PG12  23348.240078  -8653.247536   8828.575419   -288.392290
PG13  23000.902285  13473.021336   -730.077438    399.924563
PG14  -7577.925170  19777.210991  15967.414396    -98.211424
PG15  25996.629710   2433.319181   5209.967523    -23.621368
PG16 -16009.396982  -6438.924306 -20589.640766   -525.657349
PG17   1581.953446  16506.249225  21173.849631    665.567944
PG18   6421.446087 -21881.620715 -13504.770942     26.151962
PG19  12620.413032  17963.578911  14892.781004    219.432494
PG20  10670.441244  11371.586046 -21497.409045    481.061153
PG21 -16255.786429  -3769.153460  21418.778374    158.531217
PG22 -14780.318615 -17833.716046  13576.308121    339.702691
PG23  14396.721134 -20297.753374   9083.291523     -0.746387
PG24  15572.979983  -1940.203161  21120.242422    112.132919
PG25  19797.211562 -17434.203062  -1518.473009    378.972681
PG26  -7980.923494 -13876.081227 -21250.997376    231.205175
PG27 -22672.651660 -13110.879066  -5764.674043    203.130702
PG28   1053.044412  16757.769855  21139.714124    332.782162
PG29  14502.653111  -8400.622143 -20668.347169   -557.013126
PG30    398.461442  26064.053130  -4237.028339   -537.215232
PG31  -7400.777144 -24559.353905  -6020.104177   -195.652923
PG32  -5797.975618 -17060.034890  19725.734870   -253.170581
PJ02 -28991.246763  30707.283169   4639.836232     -6.461324
PJ03 -25500.093071  23322.073227  29234.626665     -2.428764
PJ04 -33434.217422  23138.026364  -6167.293179    111.625549
PR01 -19807.597294   8303.079871 -13762.504300     15.749537
PR02  -1334.670550  10895.672223 -22992.294409    -22.865672
PR03  16934.002858   7312.138754 -17550.742133     64.884624
PR04  25375.672813   -218.380529  -2481.715136    159.980032
PR05  19950.509847  -7558.577868  13964.310609    100.695642
PR07 -17624.014451  -7069.932622  17091.899977     42.028133
PR08 -25410.696221    329.912244   2451.079255    -67.499392
PR09   5668.819678 -23034.917030  -9457.229766     80.250058
PR11 -13143.919001   3836.636636 -21504.472394     25.516576
PR12 -14026.410800  19680.144803  -8159.017235     21.750736
PR13  -6780.507463  23209.380428   8117.038345    -27.476720
PR14   5387.964423  12712.341589  21460.332544     24.219924
PR15  13600.405114  -4660.241737  21095.169807     93.388124
PR17  15173.760984  20205.970796  -3663.035416    566.297205
PR18  15425.719964   8939.777944 -18208.142095     45.536175
PR19   8698.049911  -5592.852316 -23316.895151   -206.059483
PR20  -5097.229813 -20636.234532 -14116.244076    -79.603441
PR21 -15446.699444 -19571.717419   5299.364190   -338.949684
PR24   5870.135230  20872.688698  13475.039309    118.396423
PR25 -15225.229877  -8717.111232  18546.280514     13.914061
EOF
